{"type": "FeatureCollection", "features": [ {"type": "Feature", "properties": {"norad_id": 66927, "name": "STARLINK-35943", "group": "last-30-days", "lat": 52.50262340867389, "lon": 121.7236967395469, "alt_km": 317.74849438827096, "timestamp": "2025-12-18T21:31:49.701021+00:00", "meta": {"OBJECT_NAME": "STARLINK-35943", "OBJECT_ID": "2025-286C", "EPOCH": "2025-12-18T06:00:02.999808", "MEAN_MOTION": 15.83631694, "ECCENTRICITY": 7.758e-05, "INCLINATION": 53.1566, "RA_OF_ASC_NODE": 22.7418, "ARG_OF_PERICENTER": 82.5989, "MEAN_ANOMALY": 285.8773, "EPHEMERIS_TYPE": 0, "CLASSIFICATION_TYPE": "U", "NORAD_CAT_ID": 66927, "ELEMENT_SET_NO": 999, "REV_AT_EPOCH": 287, "BSTAR": -0.0067595025, "MEAN_MOTION_DOT": -0.01332852, "MEAN_MOTION_DDOT": 0}, "tle": {"line1": "1 66927U 25286C   25352.25003472 -.01332852  00000+0 -67595-2 0  9992", "line2": "2 66927  53.1566  22.7418 0000775  82.5989 285.8773 15.83631694  2875"}}, "geometry": {"type": "Point", "coordinates": [121.7236967395469, 52.50262340867389]}}, {"type": "Feature", "properties": {"norad_id": 66928, "name": "STARLINK-35944", "group": "last-30-days", "lat": 53.01973218632516, "lon": 114.76762890167903, "alt_km": 317.75705979251416, "timestamp": "2025-12-18T21:31:49.701033+00:00", "meta": {"OBJECT_NAME": "STARLINK-35944", "OBJECT_ID": "2025-286D", "EPOCH": "2025-12-18T06:00:02.999808", "MEAN_MOTION": 15.83611617, "ECCENTRICITY": 6.555e-05, "INCLINATION": 53.1565, "RA_OF_ASC_NODE": 22.7503, "ARG_OF_PERICENTER": 85.6812, "MEAN_ANOMALY": 278.5808, "EPHEMERIS_TYPE": 0, "CLASSIFICATION_TYPE": "U", "NORAD_CAT_ID": 66928, "ELEMENT_SET_NO": 999, "REV_AT_EPOCH": 287, "BSTAR": -0.0066874006, "MEAN_MOTION_DOT": -0.01319196, "MEAN_MOTION_DDOT": 0}, "tle": {"line1": "1 66928U 25286D   25352.25003472 -.01319196  00000+0 -66874-2 0  9998", "line2": "2 66928  53.1565  22.7503 0000655  85.6812 278.5808 15.83611617  2877"}}, "geometry": {"type": "Point", "coordinates": [114.76762890167903, 53.01973218632516]}}, {"type": "Feature", "properties": {"norad_id": 66929, "name": "STARLINK-36169", "group": "last-30-days", "lat": 52.06714888237539, "lon": 125.31687909145131, "alt_km": 317.8377564280863, "timestamp": "2025-12-18T21:31:49.701046+00:00", "meta": {"OBJECT_NAME": "STARLINK-36169", "OBJECT_ID": "2025-286E", "EPOCH": "2025-12-18T06:00:02.999808", "MEAN_MOTION": 15.836304, "ECCENTRICITY": 7.627e-05, "INCLINATION": 53.1565, "RA_OF_ASC_NODE": 22.7368, "ARG_OF_PERICENTER": 77.2817, "MEAN_ANOMALY": 293.4356, "EPHEMERIS_TYPE": 0, "CLASSIFICATION_TYPE": "U", "NORAD_CAT_ID": 66929, "ELEMENT_SET_NO": 999, "REV_AT_EPOCH": 287, "BSTAR": -0.0067588109, "MEAN_MOTION_DOT": -0.01332652, "MEAN_MOTION_DDOT": 0}, "tle": {"line1": "1 66929U 25286E   25352.25003472 -.01332652  00000+0 -67588-2 0  9994", "line2": "2 66929  53.1565  22.7368 0000762  77.2817 293.4356 15.83630400  2873"}}, "geometry": {"type": "Point", "coordinates": [125.31687909145131, 52.06714888237539]}}, {"type": "Feature", "properties": {"norad_id": 66930, "name": "STARLINK-36206", "group": "last-30-days", "lat": 51.57110585075433, "lon": 128.55758360744247, "alt_km": 317.8537287537356, "timestamp": "2025-12-18T21:31:49.701058+00:00", "meta": {"OBJECT_NAME": "STARLINK-36206", "OBJECT_ID": "2025-286F", "EPOCH": "2025-12-18T06:00:02.999808", "MEAN_MOTION": 15.83645193, "ECCENTRICITY": 8.033e-05, "INCLINATION": 53.1564, "RA_OF_ASC_NODE": 22.7325, "ARG_OF_PERICENTER": 86.5561, "MEAN_ANOMALY": 286.2067, "EPHEMERIS_TYPE": 0, "CLASSIFICATION_TYPE": "U", "NORAD_CAT_ID": 66930, "ELEMENT_SET_NO": 999, "REV_AT_EPOCH": 287, "BSTAR": -0.0068038031, "MEAN_MOTION_DOT": -0.01341271, "MEAN_MOTION_DDOT": 0}, "tle": {"line1": "1 66930U 25286F   25352.25003472 -.01341271  00000+0 -68038-2 0  9994", "line2": "2 66930  53.1564  22.7325 0000803  86.5561 286.2067 15.83645193  2876"}}, "geometry": {"type": "Point", "coordinates": [128.55758360744247, 51.57110585075433]}}, {"type": "Feature", "properties": {"norad_id": 66931, "name": "STARLINK-36130", "group": "last-30-days", "lat": 50.9207960682322, "lon": 132.0529783348545, "alt_km": 318.0525329451157, "timestamp": "2025-12-18T21:31:49.701072+00:00", "meta": {"OBJECT_NAME": "STARLINK-36130", "OBJECT_ID": "2025-286G", "EPOCH": "2025-12-18T06:00:02.999808", "MEAN_MOTION": 15.83646638, "ECCENTRICITY": 7.151e-05, "INCLINATION": 53.1563, "RA_OF_ASC_NODE": 22.7278, "ARG_OF_PERICENTER": 78.5279, "MEAN_ANOMALY": 296.5225, "EPHEMERIS_TYPE": 0, "CLASSIFICATION_TYPE": "U", "NORAD_CAT_ID": 66931, "ELEMENT_SET_NO": 999, "REV_AT_EPOCH": 287, "BSTAR": -0.0068382583, "MEAN_MOTION_DOT": -0.01347233, "MEAN_MOTION_DDOT": 0}, "tle": {"line1": "1 66931U 25286G   25352.25003472 -.01347233  00000+0 -68383-2 0  9992", "line2": "2 66931  53.1563  22.7278 0000715  78.5279 296.5225 15.83646638  2877"}}, "geometry": {"type": "Point", "coordinates": [132.0529783348545, 50.9207960682322]}}, {"type": "Feature", "properties": {"norad_id": 66932, "name": "STARLINK-36177", "group": "last-30-days", "lat": 50.18458130059373, "lon": 135.37802763352005, "alt_km": 318.1605073069122, "timestamp": "2025-12-18T21:31:49.701084+00:00", "meta": {"OBJECT_NAME": "STARLINK-36177", "OBJECT_ID": "2025-286H", "EPOCH": "2025-12-18T06:00:02.999808", "MEAN_MOTION": 15.83650204, "ECCENTRICITY": 7.758e-05, "INCLINATION": 53.156, "RA_OF_ASC_NODE": 22.7231, "ARG_OF_PERICENTER": 77.2232, "MEAN_ANOMALY": 300.0708, "EPHEMERIS_TYPE": 0, "CLASSIFICATION_TYPE": "U", "NORAD_CAT_ID": 66932, "ELEMENT_SET_NO": 999, "REV_AT_EPOCH": 287, "BSTAR": -0.0068894337, "MEAN_MOTION_DOT": -0.01356277, "MEAN_MOTION_DDOT": 0}, "tle": {"line1": "1 66932U 25286H   25352.25003472 -.01356277  00000+0 -68894-2 0  9998", "line2": "2 66932  53.1560  22.7231 0000775  77.2232 300.0708 15.83650204  2876"}}, "geometry": {"type": "Point", "coordinates": [135.37802763352005, 50.18458130059373]}}, {"type": "Feature", "properties": {"norad_id": 66933, "name": "STARLINK-36157", "group": "last-30-days", "lat": 49.368014483720685, "lon": 138.5552577733126, "alt_km": 318.3105818429249, "timestamp": "2025-12-18T21:31:49.701094+00:00", "meta": {"OBJECT_NAME": "STARLINK-36157", "OBJECT_ID": "2025-286J", "EPOCH": "2025-12-18T06:00:02.999808", "MEAN_MOTION": 15.83656486, "ECCENTRICITY": 7.044e-05, "INCLINATION": 53.1563, "RA_OF_ASC_NODE": 22.7185, "ARG_OF_PERICENTER": 85.9689, "MEAN_ANOMALY": 293.5342, "EPHEMERIS_TYPE": 0, "CLASSIFICATION_TYPE": "U", "NORAD_CAT_ID": 66933, "ELEMENT_SET_NO": 999, "REV_AT_EPOCH": 287, "BSTAR": -0.0069336645, "MEAN_MOTION_DOT": -0.01364182, "MEAN_MOTION_DDOT": 0}, "tle": {"line1": "1 66933U 25286J   25352.25003472 -.01364182  00000+0 -69337-2 0  9996", "line2": "2 66933  53.1563  22.7185 0000704  85.9689 293.5342 15.83656486  2870"}}, "geometry": {"type": "Point", "coordinates": [138.5552577733126, 49.368014483720685]}}, {"type": "Feature", "properties": {"norad_id": 66934, "name": "STARLINK-36153", "group": "last-30-days", "lat": 48.45981869569325, "lon": 141.644733067117, "alt_km": 318.5130237262465, "timestamp": "2025-12-18T21:31:49.701103+00:00", "meta": {"OBJECT_NAME": "STARLINK-36153", "OBJECT_ID": "2025-286K", "EPOCH": "2025-12-18T06:00:02.999808", "MEAN_MOTION": 15.83656659, "ECCENTRICITY": 6.131e-05, "INCLINATION": 53.1562, "RA_OF_ASC_NODE": 22.7135, "ARG_OF_PERICENTER": 85.6115, "MEAN_ANOMALY": 296.1172, "EPHEMERIS_TYPE": 0, "CLASSIFICATION_TYPE": "U", "NORAD_CAT_ID": 66934, "ELEMENT_SET_NO": 999, "REV_AT_EPOCH": 287, "BSTAR": -0.0069415766, "MEAN_MOTION_DOT": -0.0136549, "MEAN_MOTION_DDOT": 0}, "tle": {"line1": "1 66934U 25286K   25352.25003472 -.01365490  00000+0 -69416-2 0  9998", "line2": "2 66934  53.1562  22.7135 0000613  85.6115 296.1172 15.83656659  2877"}}, "geometry": {"type": "Point", "coordinates": [141.644733067117, 48.45981869569325]}}, {"type": "Feature", "properties": {"norad_id": 66935, "name": "STARLINK-36127", "group": "last-30-days", "lat": 47.37985127045432, "lon": 144.88156703489062, "alt_km": 318.6370448303105, "timestamp": "2025-12-18T21:31:49.701115+00:00", "meta": {"OBJECT_NAME": "STARLINK-36127", "OBJECT_ID": "2025-286L", "EPOCH": "2025-12-18T06:00:02.999808", "MEAN_MOTION": 15.83656131, "ECCENTRICITY": 7.748e-05, "INCLINATION": 53.1562, "RA_OF_ASC_NODE": 22.7086, "ARG_OF_PERICENTER": 88.0193, "MEAN_ANOMALY": 296.1629, "EPHEMERIS_TYPE": 0, "CLASSIFICATION_TYPE": "U", "NORAD_CAT_ID": 66935, "ELEMENT_SET_NO": 999, "REV_AT_EPOCH": 287, "BSTAR": -0.0070386515, "MEAN_MOTION_DOT": -0.01382178, "MEAN_MOTION_DDOT": 0}, "tle": {"line1": "1 66935U 25286L   25352.25003472 -.01382178  00000+0 -70387-2 0  9990", "line2": "2 66935  53.1562  22.7086 0000774  88.0193 296.1629 15.83656131  2876"}}, "geometry": {"type": "Point", "coordinates": [144.88156703489062, 47.37985127045432]}}, {"type": "Feature", "properties": {"norad_id": 66936, "name": "STARLINK-36160", "group": "last-30-days", "lat": 46.362535407446, "lon": 147.60347363992835, "alt_km": 318.8252202537278, "timestamp": "2025-12-18T21:31:49.701128+00:00", "meta": {"OBJECT_NAME": "STARLINK-36160", "OBJECT_ID": "2025-286M", "EPOCH": "2025-12-18T06:00:02.999808", "MEAN_MOTION": 15.83662731, "ECCENTRICITY": 7.162e-05, "INCLINATION": 53.1562, "RA_OF_ASC_NODE": 22.7045, "ARG_OF_PERICENTER": 86.8974, "MEAN_ANOMALY": 299.3919, "EPHEMERIS_TYPE": 0, "CLASSIFICATION_TYPE": "U", "NORAD_CAT_ID": 66936, "ELEMENT_SET_NO": 999, "REV_AT_EPOCH": 287, "BSTAR": -0.0070460123, "MEAN_MOTION_DOT": -0.01383778, "MEAN_MOTION_DDOT": 0}, "tle": {"line1": "1 66936U 25286M   25352.25003472 -.01383778  00000+0 -70460-2 0  9990", "line2": "2 66936  53.1562  22.7045 0000716  86.8974 299.3919 15.83662731  2871"}}, "geometry": {"type": "Point", "coordinates": [147.60347363992835, 46.362535407446]}}]}